IRIDIUM 150             
1 43257U 18030J   25112.44397339  .00000018  00000+0 -63440-6 0  9998
2 43257  86.3921 106.3769 0002165  97.2885 262.8556 14.34216912369855
IRIDIUM 143             
1 43258U 18030K   25112.42494570  .00000159  00000+0  49812-4 0  9992
2 43258  86.3920 106.4615 0002337 101.3380 258.8079 14.34217292369783
IRIDIUM 161             
1 43478U 18047C   25112.46944996  .00000645  00000+0  18584-3 0  9991
2 43478  86.4421 264.2261 0003101 105.7951 254.3592 14.43271933364458
IRIDIUM 152             
1 43479U 18047D   25112.46743290 -.00000020  00000+0 -14079-4 0  9991
2 43479  86.3928 264.0926 0002010  92.2085 267.9341 14.34217120362180
IRIDIUM 147             
1 43480U 18047E   25112.47377722  .00000409  00000+0  13887-3 0  9991
2 43480  86.3931 264.0873 0002348  90.1616 269.9849 14.34216059362183
IRIDIUM 110             
1 43481U 18047F   25112.48011300  .00000070  00000+0  18057-4 0  9999
2 43481  86.3929 264.1654 0002067  80.5571 279.5859 14.34215228362174
IRIDIUM 162             
1 43482U 18047G   25112.46316333  .00000814  00000+0  23597-3 0  9992
2 43482  86.4446 264.1286 0001879  88.8332 271.3084 14.43280214364446
IRIDIUM 160             
1 43569U 18061A   25112.42595502  .00000138  00000+0  42097-4 0  9993
2 43569  86.3989 232.5581 0002222  89.0215 271.1235 14.34217879353065
